     2              NAVIGATION DATA                         RINEX VERSION / TYPE
CCRINEXN V1.6.0 UX  CDDIS               19-APR-24 13:42     PGM / RUN BY / DATE 
IGS BROADCAST EPHEMERIS FILE                                COMMENT             
    0.3912D-07  0.7451D-08 -0.1788D-06 -0.5960D-07          ION ALPHA           
    0.1393D+06  0.3277D+05 -0.3277D+06  0.3277D+06          ION BETA            
   -0.558793544769D-08-0.799360577730D-14    61440     2311 DELTA-UTC: A0,A1,T,W
    18                                                      LEAP SECONDS        
                                                            END OF HEADER       
18 24  4 19  0  0  0.0-0.596833415330D-03-0.648014975013D-11 0.000000000000D+00
    0.166000000000D+03 0.325625000000D+02 0.409195616069D-08-0.196014112459D+01
    0.156089663506D-05 0.397516484372D-02 0.102762132883D-04 0.515361709976D+04
    0.432000000000D+06 0.409781932831D-07 0.278993066813D+01-0.100582838059D-06
    0.974774841273D+00 0.190468750000D+03-0.304369934568D+01-0.780532512312D-08
    0.135005623526D-09 0.100000000000D+01 0.231000000000D+04 0.000000000000D+00
    0.200000000000D+01 0.000000000000D+00-0.838190317154D-08 0.166000000000D+03
    0.424818000000D+06 0.400000000000D+01 0.000000000000D+00 0.000000000000D+00
20 24  4 19  0  0  0.0 0.379677861929D-03-0.136424205266D-11 0.000000000000D+00
    0.570000000000D+02 0.448437500000D+02 0.499270796633D-08-0.149747436503D+01
    0.246241688728D-05 0.365949189290D-02 0.504404306412D-05 0.515376715469D+04
    0.432000000000D+06 0.447034835815D-07-0.264081064896D+01-0.186264514923D-07
    0.953416588416D+00 0.279468750000D+03-0.259450642004D+01-0.840034990829D-08
    0.322156276245D-09 0.100000000000D+01 0.231000000000D+04 0.000000000000D+00
    0.200000000000D+01 0.000000000000D+00-0.838190317154D-08 0.570000000000D+02
    0.424818000000D+06 0.400000000000D+01 0.000000000000D+00 0.000000000000D+00
21 24  4 19  0  0  0.0 0.126544851810D-03-0.216004991671D-11 0.000000000000D+00
    0.300000000000D+01 0.110937500000D+02 0.457697636372D-08-0.906159209854D-01
    0.404193997383D-06 0.252250448102D-01 0.928714871407D-05 0.515370023155D+04
    0.432000000000D+06 0.165775418282D-06 0.268094873669D+01-0.370666384697D-06
    0.961888629357D+00 0.205968750000D+03-0.587198048733D+00-0.838713507213D-08
    0.378587198248D-10 0.100000000000D+01 0.231000000000D+04 0.000000000000D+00
    0.280000000000D+01 0.000000000000D+00-0.102445483208D-07 0.259000000000D+03
    0.424818000000D+06 0.400000000000D+01 0.000000000000D+00 0.000000000000D+00
22 24  4 19  0  0  0.0-0.148732215166D-05-0.557065504836D-11 0.000000000000D+00
    0.620000000000D+02 0.361250000000D+02 0.483770150969D-08 0.562301541248D+00
    0.179558992386D-05 0.143613023683D-01 0.554881989956D-05 0.515370322418D+04
    0.432000000000D+06-0.894069671631D-07 0.766853393128D+00-0.195577740669D-06
    0.961663233179D+00 0.273656250000D+03-0.113734055807D+01-0.849428239239D-08
    0.178936024832D-09 0.100000000000D+01 0.231000000000D+04 0.000000000000D+00
    0.200000000000D+01 0.000000000000D+00-0.111758708954D-07 0.620000000000D+02
    0.424818000000D+06 0.400000000000D+01 0.000000000000D+00 0.000000000000D+00
23 24  4 19  0  0  0.0 0.204342883080D-03 0.932232069317D-11 0.000000000000D+00
    0.195000000000D+03 0.353750000000D+02 0.435553856852D-08-0.312907074777D+01
    0.180117785931D-05 0.406206841581D-02 0.483170151711D-05 0.515370881271D+04
    0.432000000000D+06-0.949949026108D-07-0.249322228453D+01 0.111758708954D-07
    0.978709122455D+00 0.296312500000D+03-0.295893672963D+01-0.803247744207D-08
    0.212151694112D-09 0.100000000000D+01 0.231000000000D+04 0.000000000000D+00
    0.200000000000D+01 0.000000000000D+00-0.838190317154D-08 0.451000000000D+03
    0.427578000000D+06 0.400000000000D+01 0.000000000000D+00 0.000000000000D+00
25 24  4 19  0  0  0.0 0.494055449963D-03 0.795807864051D-12 0.000000000000D+00
    0.680000000000D+02 0.493125000000D+02 0.478448500729D-08 0.268258130499D+01
    0.245496630669D-05 0.117731094360D-01 0.562332570553D-05 0.515358052635D+04
    0.432000000000D+06 0.745058059692D-07 0.659518255400D+00-0.106170773506D-06
    0.950844841339D+00 0.263687500000D+03 0.108783064847D+01-0.806533595362D-08
    0.290012080167D-09 0.100000000000D+01 0.231000000000D+04 0.000000000000D+00
    0.200000000000D+01 0.000000000000D+00 0.558793544769D-08 0.680000000000D+02
    0.424818000000D+06 0.400000000000D+01 0.000000000000D+00 0.000000000000D+00
26 24  4 19  0  0  0.0 0.164822209626D-03-0.511590769747D-11 0.000000000000D+00
    0.530000000000D+02 0.524062500000D+02 0.536522348309D-08 0.187597486710D+01
    0.267848372459D-05 0.884182262234D-02 0.588595867157D-05 0.515362060356D+04
    0.432000000000D+06-0.199303030968D-06 0.597754559220D+00 0.540167093277D-07
    0.931652450401D+00 0.251250000000D+03 0.540435611930D+00-0.855392773400D-08
    0.252153360342D-09 0.100000000000D+01 0.231000000000D+04 0.000000000000D+00
    0.200000000000D+01 0.000000000000D+00 0.698491930962D-08 0.530000000000D+02
    0.424818000000D+06 0.400000000000D+01 0.000000000000D+00 0.000000000000D+00
27 24  4 19  0  0  0.0-0.194432213903D-04-0.216004991671D-11 0.000000000000D+00
    0.120000000000D+02-0.250937500000D+02 0.469590988921D-08 0.103377758533D+00
   -0.127404928207D-05 0.125732428860D-01 0.667385756970D-05 0.515367576218D+04
    0.432000000000D+06-0.558793544769D-08 0.171712665628D+01 0.197440385819D-06
    0.962437576200D+00 0.255531250000D+03 0.785294130904D+00-0.835427656058D-08
   -0.286797660560D-09 0.100000000000D+01 0.231000000000D+04 0.000000000000D+00
    0.200000000000D+01 0.000000000000D+00 0.186264514923D-08 0.120000000000D+02
    0.424818000000D+06 0.400000000000D+01 0.000000000000D+00 0.000000000000D+00
28 24  4 19  0  0  0.0-0.208852346987D-03-0.152340362547D-10 0.000000000000D+00
    0.212000000000D+03-0.840625000000D+01 0.426839208138D-08 0.201204715064D+01
   -0.404193997383D-06 0.440370989963D-03 0.108126550913D-04 0.515363647270D+04
    0.432000000000D+06 0.763684511185D-07-0.403026541639D+00 0.204890966415D-07
    0.961702000508D+00 0.173281250000D+03 0.173928858220D+01-0.782818321811D-08
    0.850035407387D-10 0.100000000000D+01 0.231000000000D+04 0.000000000000D+00
    0.280000000000D+01 0.000000000000D+00-0.931322574616D-08 0.212000000000D+03
    0.424818000000D+06 0.400000000000D+01 0.000000000000D+00 0.000000000000D+00
29 24  4 19  0  0  0.0-0.601423438638D-03 0.125055521494D-11 0.000000000000D+00
    0.740000000000D+02-0.310312500000D+02 0.436696761602D-08 0.649379285139D-01
   -0.162981450558D-05 0.282516039442D-02 0.726059079170D-05 0.515360735321D+04
    0.432000000000D+06 0.204890966415D-07 0.180006533972D+01-0.428408384323D-07
    0.971609877988D+00 0.242781250000D+03 0.250301981118D+01-0.806176437627D-08
   -0.314298806093D-09 0.100000000000D+01 0.231000000000D+04 0.000000000000D+00
    0.280000000000D+01 0.000000000000D+00-0.977888703346D-08 0.740000000000D+02
    0.424818000000D+06 0.400000000000D+01 0.000000000000D+00 0.000000000000D+00
31 24  4 19  0  0  0.0-0.227999873459D-03 0.000000000000D+00 0.000000000000D+00
    0.640000000000D+02-0.250000000000D+01 0.437732519031D-08 0.259627133123D+01
   -0.266358256340D-06 0.105026989477D-01 0.107754021883D-04 0.515371420479D+04
    0.432000000000D+06-0.298023223877D-07-0.348167625688D+00-0.180676579475D-06
    0.954616062745D+00 0.169468750000D+03 0.669650747859D+00-0.778425281680D-08
    0.917895376884D-10 0.100000000000D+01 0.231000000000D+04 0.000000000000D+00
    0.200000000000D+01 0.000000000000D+00-0.130385160446D-07 0.640000000000D+02
    0.424818000000D+06 0.400000000000D+01 0.000000000000D+00 0.000000000000D+00
 2 24  4 19  2  0  0.0-0.450963154435D-03 0.648014975013D-11 0.000000000000D+00
    0.100000000000D+03 0.740625000000D+01 0.425410577201D-08 0.133737624432D+01
    0.171363353729D-06 0.160229793983D-01 0.964291393757D-05 0.515370655823D+04
    0.439200000000D+06 0.206753611565D-06 0.268784912670D+01-0.387430191040D-06
    0.967624559984D+00 0.197125000000D+03-0.120162092100D+01-0.787889961637D-08
    0.410731394325D-10 0.100000000000D+01 0.231000000000D+04 0.000000000000D+00
    0.200000000000D+01 0.000000000000D+00-0.176951289177D-07 0.100000000000D+03
    0.432018000000D+06 0.400000000000D+01 0.000000000000D+00 0.000000000000D+00
 3 24  4 19  2  0  0.0 0.318353530019D-03 0.206910044653D-10 0.000000000000D+00
    0.510000000000D+02 0.246875000000D+02 0.431125100948D-08-0.218446559729D+01
    0.132061541081D-05 0.534200260881D-02 0.461935997009D-05 0.515374113083D+04
    0.439200000000D+06 0.108033418655D-06-0.246191759314D+01 0.316649675369D-07
    0.983878656552D+00 0.303343750000D+03 0.106772121563D+01-0.798926135623D-08
    0.322513433979D-09 0.100000000000D+01 0.231000000000D+04 0.000000000000D+00
    0.200000000000D+01 0.000000000000D+00 0.186264514923D-08 0.510000000000D+02
    0.432018000000D+06 0.400000000000D+01 0.000000000000D+00 0.000000000000D+00
 4 24  4 19  2  0  0.0 0.342011917383D-03 0.875388650456D-11 0.000000000000D+00
    0.340000000000D+02-0.703750000000D+02 0.457019036677D-08 0.762023727084D+00
   -0.361725687981D-05 0.279586703982D-02 0.627711415291D-05 0.515376245117D+04
    0.439200000000D+06-0.186264514923D-08-0.138273395354D+01-0.186264514923D-07
    0.964311032980D+00 0.256187500000D+03-0.294260517301D+01-0.817891211309D-08
   -0.341085636157D-09 0.100000000000D+01 0.231000000000D+04 0.000000000000D+00
    0.200000000000D+01 0.000000000000D+00-0.465661287308D-08 0.290000000000D+03
    0.432018000000D+06 0.400000000000D+01 0.000000000000D+00 0.000000000000D+00
